QIANFAN-208             
1 69807U 26153H   26196.59480211 -.01652329  00000+0 -83278+0 0  9997
2 69807  88.9917 359.0019 0005331 201.1605 158.9366 14.20322021  1600
QIANFAN-209             
1 69808U 26153J   26196.80858076  .00000047  00000+0  14487-4 0  9992
2 69808  88.9932 358.9791 0007501 176.9404 183.1835 14.23085161  1638
QIANFAN-210             
1 69809U 26153K   26196.38320737 -.01876507  00000+0 -92638+0 0  9998
2 69809  88.9915 359.0262 0007724 185.4445 174.6663 14.21276921  1573
QIANFAN-211             
1 69810U 26153L   26196.45309273 -.01886038  00000+0 -92072+0 0  9992
2 69810  88.9913 359.0182 0006010 176.2905 183.8332 14.21896197  1589
QIANFAN-212             
1 69811U 26153M   26196.45228267 -.01709202  00000+0 -83873+0 0  9992
2 69811  88.9917 359.0179 0006304 173.1887 186.9390 14.21876559  1589
QIANFAN-213             
1 69812U 26153N   26196.80475757  .00000142  00000+0  52639-4 0  9995
2 69812  88.9922 358.9775 0007818 182.4800 177.6357 14.26673608  1636
QIANFAN-214             
1 69813U 26153P   26196.80299830 -.01708174  00000+0 -83952+0 0  9992
2 69813  88.9919 358.9776 0006177 176.2291 183.8948 14.21792310  1638
QIANFAN-215             
1 69814U 26153Q   26196.52415661  .00000128  00000+0  46904-4 0  9996
2 69814  88.9920 359.0096 0007863 184.4134 175.6992 14.26718287  1597
QIANFAN-216             
1 69815U 26153R   26196.59428640  .00000147  00000+0  54831-4 0  9994
2 69815  88.9922 359.0017 0007843 183.9973 176.1160 14.26719369  1603
QIANFAN-217             
1 69816U 26153S   26196.59389799  .00000050  00000+0  14408-4 0  9995
2 69816  88.9921 359.0015 0007547 180.4226 179.6963 14.26767955  1608
QIANFAN-218             
1 69817U 26153T   26196.59357325  .00000124  00000+0  44993-4 0  9990
2 69817  88.9923 359.0018 0007330 177.5964 182.5267 14.26810593  1607
CZ-6A R/B               
1 69818U 26153U   26196.80534132  .00000203  00000+0  77984-4 0  9992
2 69818  88.9923 358.9775 0008088 180.2769 179.8422 14.26541239  1634
STARLINK-37520          
1 69819U 26154A   26196.83335647 -.00754717  00000+0 -40774-2 0  9990
2 69819  53.1585 289.7560 0001319  70.6266 324.9181 15.81331869  2779
STARLINK-37553          
1 69820U 26154B   26196.83335647 -.00820480  00000+0 -44455-2 0  9993
2 69820  53.1585 289.7471 0000644  84.1113 315.6331 15.81440263  2776
STARLINK-37561          
1 69821U 26154C   26196.83335647 -.00946005  00000+0 -51728-2 0  9997
2 69821  53.1585 289.7385 0001219  77.8429 326.0983 15.81558364  2770
STARLINK-37521          
1 69822U 26154D   26196.83335647 -.01200796  00000+0 -65539-2 0  9994
2 69822  53.1586 289.7299 0001047  68.3019 339.7498 15.81791821  2774
STARLINK-37628          
1 69823U 26154E   26196.83335647 -.01329493  00000+0 -73071-2 0  9991
2 69823  53.1586 289.7211 0001193  60.3753 351.8401 15.81930175  2774
STARLINK-37695          
1 69824U 26154F   26196.83335647 -.02002066  00000+0 -93007-2 0  9998
2 69824  53.1586 289.6579 0001082  43.7521  39.1325 15.85685790  2771
STARLINK-37690          
1 69825U 26154G   26196.83335647 -.01645730  00000+0 -89616-2 0  9990
2 69825  53.1587 289.7043 0001156  63.7883 356.6630 15.82286090  2778
STARLINK-37710          
1 69826U 26154H   26196.83335647 -.01710596  00000+0 -93163-2 0  9996
2 69826  53.1585 289.6955 0000934  60.8984   3.6887 15.82414285  2773
STARLINK-38031          
1 69827U 26154J   26196.83335647 -.01990684  00000+0 -10682-1 0  9999
2 69827  53.1587 289.6870 0001026  64.8417   3.8006 15.82687388  2771
STARLINK-38001          
1 69828U 26154K   26196.83335647 -.01796651  00000+0 -94979-2 0  9990
2 69828  53.1587 289.6787 0001043  56.5109  16.2233 15.82682559  2779
STARLINK-37622          
1 69829U 26154L   26196.83335647 -.01737965  00000+0 -93137-2 0  9999
2 69829  53.1588 289.6700 0001084  52.0752  24.7166 15.82806571  2777
STARLINK-37621          
1 69830U 26154M   26196.83335647 -.01671174  00000+0 -88436-2 0  9996
2 69830  53.1588 289.6620 0000953  59.0156  21.7679 15.82939773  2776
STARLINK-37918          
1 69831U 26154N   26196.83335647 -.01634003  00000+0 -85441-2 0  9990
2 69831  53.1587 289.6539 0001279  57.6360  27.0990 15.83113477  2779
STARLINK-37887          
1 69832U 26154P   26196.83335647 -.01647637  00000+0 -85845-2 0  9996
2 69832  53.1585 289.6457 0000821  66.2425  22.4471 15.83220569  2771
STARLINK-37624          
1 69833U 26154Q   26196.83335647 -.01654792  00000+0 -85914-2 0  9994
2 69833  53.1585 289.6370 0000801  61.1511  31.6234 15.83308543  2772
STARLINK-37769          
1 69834U 26154R   26196.83335647 -.01646108  00000+0 -84979-2 0  9997
2 69834  53.1586 289.6287 0001014  69.4582  27.3533 15.83407609  2774
STARLINK-37247          
1 69835U 26154S   26196.83335647 -.01842137  00000+0 -93542-2 0  9994
2 69835  53.1586 289.6206 0000915  74.2308  26.5589 15.83599574  2871
STARLINK-37569          
1 69836U 26154T   26196.83335647 -.01829285  00000+0 -92146-2 0  9993
2 69836  53.1589 289.6127 0001070  59.2457  45.4234 15.83744401  2775
