OBJECT_NAME,OBJECT_ID,EPOCH,MEAN_MOTION,ECCENTRICITY,INCLINATION,RA_OF_ASC_NODE,ARG_OF_PERICENTER,MEAN_ANOMALY,EPHEMERIS_TYPE,CLASSIFICATION_TYPE,NORAD_CAT_ID,ELEMENT_SET_NO,REV_AT_EPOCH,BSTAR,MEAN_MOTION_DOT,MEAN_MOTION_DDOT
QIANFAN-208,2026-153H,2026-07-15T14:16:30.902304,14.20322021,.0005331,88.9917,359.0019,201.1605,158.9366,0,U,69807,999,160,-.83278E+0,-.1652329E-1,0
QIANFAN-209,2026-153J,2026-07-15T19:24:21.377664,14.23085161,.0007501,88.9932,358.9791,176.9404,183.1835,0,U,69808,999,163,.14487E-4,.47E-6,0
QIANFAN-210,2026-153K,2026-07-15T09:11:49.116768,14.21276921,.0007724,88.9915,359.0262,185.4445,174.6663,0,U,69809,999,157,-.92638E+0,-.1876507E-1,0
QIANFAN-211,2026-153L,2026-07-15T10:52:27.211872,14.21896197,.000601,88.9913,359.0182,176.2905,183.8332,0,U,69810,999,158,-.92072E+0,-.1886038E-1,0
QIANFAN-212,2026-153M,2026-07-15T10:51:17.222688,14.21876559,.0006304,88.9917,359.0179,173.1887,186.9390,0,U,69811,999,158,-.83873E+0,-.1709202E-1,0
QIANFAN-213,2026-153N,2026-07-15T19:18:51.054048,14.26673608,.0007818,88.9922,358.9775,182.4800,177.6357,0,U,69812,999,163,.52639E-4,.142E-5,0
QIANFAN-214,2026-153P,2026-07-15T19:16:19.053120,14.21792310,.0006177,88.9919,358.9776,176.2291,183.8948,0,U,69813,999,163,-.83952E+0,-.1708174E-1,0
QIANFAN-215,2026-153Q,2026-07-15T12:34:47.131104,14.26718287,.0007863,88.9920,359.0096,184.4134,175.6992,0,U,69814,999,159,.46904E-4,.128E-5,0
QIANFAN-216,2026-153R,2026-07-15T14:15:46.344960,14.26719369,.0007843,88.9922,359.0017,183.9973,176.1160,0,U,69815,999,160,.54831E-4,.147E-5,0
QIANFAN-217,2026-153S,2026-07-15T14:15:12.786336,14.26767955,.0007547,88.9921,359.0015,180.4226,179.6963,0,U,69816,999,160,.14408E-4,.5E-6,0
QIANFAN-218,2026-153T,2026-07-15T14:14:44.728800,14.26810593,.000733,88.9923,359.0018,177.5964,182.5267,0,U,69817,999,160,.44993E-4,.124E-5,0
CZ-6A R/B,2026-153U,2026-07-15T19:19:41.490048,14.26541239,.0008088,88.9923,358.9775,180.2769,179.8422,0,U,69818,999,163,.77984E-4,.203E-5,0
STARLINK-37520,2026-154A,2026-07-15T20:00:01.999008,15.81331869,.0001319,53.1585,289.7560,70.6266,324.9181,0,U,69819,999,277,-.40774E-2,-.754717E-2,0
STARLINK-37553,2026-154B,2026-07-15T20:00:01.999008,15.81440263,.0000644,53.1585,289.7471,84.1113,315.6331,0,U,69820,999,277,-.44455E-2,-.82048E-2,0
STARLINK-37561,2026-154C,2026-07-15T20:00:01.999008,15.81558364,.0001219,53.1585,289.7385,77.8429,326.0983,0,U,69821,999,277,-.51728E-2,-.946005E-2,0
STARLINK-37521,2026-154D,2026-07-15T20:00:01.999008,15.81791821,.0001047,53.1586,289.7299,68.3019,339.7498,0,U,69822,999,277,-.65539E-2,-.1200796E-1,0
STARLINK-37628,2026-154E,2026-07-15T20:00:01.999008,15.81930175,.0001193,53.1586,289.7211,60.3753,351.8401,0,U,69823,999,277,-.73071E-2,-.1329493E-1,0
STARLINK-37695,2026-154F,2026-07-15T20:00:01.999008,15.85685790,.0001082,53.1586,289.6579,43.7521,39.1325,0,U,69824,999,277,-.93007E-2,-.2002066E-1,0
STARLINK-37690,2026-154G,2026-07-15T20:00:01.999008,15.82286090,.0001156,53.1587,289.7043,63.7883,356.6630,0,U,69825,999,277,-.89616E-2,-.164573E-1,0
STARLINK-37710,2026-154H,2026-07-15T20:00:01.999008,15.82414285,.0000934,53.1585,289.6955,60.8984,3.6887,0,U,69826,999,277,-.93163E-2,-.1710596E-1,0
STARLINK-38031,2026-154J,2026-07-15T20:00:01.999008,15.82687388,.0001026,53.1587,289.6870,64.8417,3.8006,0,U,69827,999,277,-.10682E-1,-.1990684E-1,0
STARLINK-38001,2026-154K,2026-07-15T20:00:01.999008,15.82682559,.0001043,53.1587,289.6787,56.5109,16.2233,0,U,69828,999,277,-.94979E-2,-.1796651E-1,0
STARLINK-37622,2026-154L,2026-07-15T20:00:01.999008,15.82806571,.0001084,53.1588,289.6700,52.0752,24.7166,0,U,69829,999,277,-.93137E-2,-.1737965E-1,0
STARLINK-37621,2026-154M,2026-07-15T20:00:01.999008,15.82939773,.0000953,53.1588,289.6620,59.0156,21.7679,0,U,69830,999,277,-.88436E-2,-.1671174E-1,0
STARLINK-37918,2026-154N,2026-07-15T20:00:01.999008,15.83113477,.0001279,53.1587,289.6539,57.6360,27.0990,0,U,69831,999,277,-.85441E-2,-.1634003E-1,0
STARLINK-37887,2026-154P,2026-07-15T20:00:01.999008,15.83220569,.0000821,53.1585,289.6457,66.2425,22.4471,0,U,69832,999,277,-.85845E-2,-.1647637E-1,0
STARLINK-37624,2026-154Q,2026-07-15T20:00:01.999008,15.83308543,.0000801,53.1585,289.6370,61.1511,31.6234,0,U,69833,999,277,-.85914E-2,-.1654792E-1,0
STARLINK-37769,2026-154R,2026-07-15T20:00:01.999008,15.83407609,.0001014,53.1586,289.6287,69.4582,27.3533,0,U,69834,999,277,-.84979E-2,-.1646108E-1,0
STARLINK-37247,2026-154S,2026-07-15T20:00:01.999008,15.83599574,.0000915,53.1586,289.6206,74.2308,26.5589,0,U,69835,999,287,-.93542E-2,-.1842137E-1,0
STARLINK-37569,2026-154T,2026-07-15T20:00:01.999008,15.83744401,.000107,53.1589,289.6127,59.2457,45.4234,0,U,69836,999,277,-.92146E-2,-.1829285E-1,0
